{
  "norad_id": 63798,
  "name": "STARLINK-33827",
  "history": [
    {
      "epoch": "2026-03-28T15:55:55.075296Z",
      "apogee_km": 483.8418538105134,
      "perigee_km": 482.1691072737576,
      "latitude_deg": 3.846093363659837e-06,
      "longitude_deg": -119.65571470046143,
      "height_km": 482.98002578021215,
      "semi_major_axis_km": 6861.142480542136,
      "eccentricity": 0.0001219,
      "inclination_deg": 43.0016,
      "raan_deg": 305.4048,
      "arg_perigee_deg": 256.3147,
      "mean_anomaly_deg": 103.7569,
      "mean_motion_rev_day": 15.27594566
    },
    {
      "epoch": "2026-03-28T23:46:41.593152Z",
      "apogee_km": 483.9774374641347,
      "perigee_km": 481.94518014506593,
      "latitude_deg": 3.160388589436124e-06,
      "longitude_deg": 120.48422579955783,
      "height_km": 482.74236167235307,
      "semi_major_axis_km": 6861.0983088046,
      "eccentricity": 0.0001481,
      "inclination_deg": 43.0035,
      "raan_deg": 303.5608,
      "arg_perigee_deg": 269.7802,
      "mean_anomaly_deg": 90.288,
      "mean_motion_rev_day": 15.27609318
    },
    {
      "epoch": "2026-03-29T23:19:03.062208Z",
      "apogee_km": 484.07116406944897,
      "perigee_km": 482.00046211445897,
      "latitude_deg": -5.33486474237588e-05,
      "longitude_deg": 120.8867870554584,
      "height_km": 482.84021793441514,
      "semi_major_axis_km": 6861.172813091954,
      "eccentricity": 0.0001509,
      "inclination_deg": 43.0021,
      "raan_deg": 298.0196,
      "arg_perigee_deg": 268.4847,
      "mean_anomaly_deg": 91.5831,
      "mean_motion_rev_day": 15.27584436
    },
    {
      "epoch": "2026-03-29T23:19:03.063072Z",
      "apogee_km": 484.0708210108087,
      "perigee_km": 482.00080517309925,
      "latitude_deg": -5.728992492194453e-05,
      "longitude_deg": 120.88677924278205,
      "height_km": 482.84020886531073,
      "semi_major_axis_km": 6861.172813091954,
      "eccentricity": 0.00015085,
      "inclination_deg": 43.0021,
      "raan_deg": 298.0196,
      "arg_perigee_deg": 268.4847,
      "mean_anomaly_deg": 91.5831,
      "mean_motion_rev_day": 15.27584436
    },
    {
      "epoch": "2026-03-30T15:00:37.255680Z",
      "apogee_km": 483.9494519980208,
      "perigee_km": 482.1309655906016,
      "latitude_deg": -2.9018656931387597e-05,
      "longitude_deg": -118.84124075217268,
      "height_km": 482.94950642448686,
      "semi_major_axis_km": 6861.177208794311,
      "eccentricity": 0.00013252,
      "inclination_deg": 43.0024,
      "raan_deg": 294.3285,
      "arg_perigee_deg": 261.6259,
      "mean_anomaly_deg": 98.4442,
      "mean_motion_rev_day": 15.27582968
    },
    {
      "epoch": "2026-03-31T06:42:10.929888Z",
      "apogee_km": 484.30843290949724,
      "perigee_km": 481.68610739144424,
      "latitude_deg": -4.749747970750316e-05,
      "longitude_deg": 1.4327554038680197,
      "height_km": 482.46807866320756,
      "semi_major_axis_km": 6861.13427015047,
      "eccentricity": 0.0001911,
      "inclination_deg": 43.0036,
      "raan_deg": 290.6373,
      "arg_perigee_deg": 283.5279,
      "mean_anomaly_deg": 76.5359,
      "mean_motion_rev_day": 15.27597308
    },
    {
      "epoch": "2026-04-01T06:14:31.760448Z",
      "apogee_km": 483.6211271360953,
      "perigee_km": 482.46570435408375,
      "latitude_deg": 9.72711644748649e-07,
      "longitude_deg": 1.8365971294428933,
      "height_km": 482.8958195737586,
      "semi_major_axis_km": 6861.180415745089,
      "eccentricity": 8.42e-05,
      "inclination_deg": 43.0013,
      "raan_deg": 285.0946,
      "arg_perigee_deg": 262.4348,
      "mean_anomaly_deg": 97.6408,
      "mean_motion_rev_day": 15.27581897
    },
    {
      "epoch": "2026-04-02T19:54:16.817184Z",
      "apogee_km": 484.08631030206107,
      "perigee_km": 481.7700147032001,
      "latitude_deg": -1.3111833083460015e-05,
      "longitude_deg": 146.49060264123523,
      "height_km": 482.81895247097043,
      "semi_major_axis_km": 6861.06516250263,
      "eccentricity": 0.0001688,
      "inclination_deg": 43.0037,
      "raan_deg": 276.2331,
      "arg_perigee_deg": 264.3775,
      "mean_anomaly_deg": 95.6884,
      "mean_motion_rev_day": 15.27620388
    },
    {
      "epoch": "2026-04-02T21:28:26.227200Z",
      "apogee_km": 483.96996677308834,
      "perigee_km": 481.95980114312624,
      "latitude_deg": 2.918367102267225e-05,
      "longitude_deg": 122.51729132665876,
      "height_km": 482.887818756472,
      "semi_major_axis_km": 6861.101883958107,
      "eccentricity": 0.00014649,
      "inclination_deg": 43.0015,
      "raan_deg": 275.8634,
      "arg_perigee_deg": 261.6446,
      "mean_anomaly_deg": 98.424,
      "mean_motion_rev_day": 15.27608124
    },
    {
      "epoch": "2026-04-03T19:26:37.255488Z",
      "apogee_km": 484.1700148310638,
      "perigee_km": 481.7425600259712,
      "latitude_deg": -5.2531927725026586e-06,
      "longitude_deg": 146.90053866274613,
      "height_km": 482.48844176200663,
      "semi_major_axis_km": 6861.093287428517,
      "eccentricity": 0.0001769,
      "inclination_deg": 43.0031,
      "raan_deg": 270.6949,
      "arg_perigee_deg": 281.6549,
      "mean_anomaly_deg": 78.4104,
      "mean_motion_rev_day": 15.27610995
    },
    {
      "epoch": "2026-04-04T20:33:07.216128Z",
      "apogee_km": 484.23788989214427,
      "perigee_km": 481.752787759021,
      "latitude_deg": -1.4938216424857531e-05,
      "longitude_deg": 123.33482934706609,
      "height_km": 482.7350408921884,
      "semi_major_axis_km": 6861.132338825582,
      "eccentricity": 0.0001811,
      "inclination_deg": 43.0033,
      "raan_deg": 264.7852,
      "arg_perigee_deg": 271.7387,
      "mean_anomaly_deg": 88.3257,
      "mean_motion_rev_day": 15.27597953
    },
    {
      "epoch": "2026-04-05T12:14:42.093888Z",
      "apogee_km": 484.0806965408847,
      "perigee_km": 482.16736528980346,
      "latitude_deg": 6.702555349688359e-06,
      "longitude_deg": -116.3987621232134,
      "height_km": 483.00974623576144,
      "semi_major_axis_km": 6861.261030915344,
      "eccentricity": 0.00013943,
      "inclination_deg": 43.0021,
      "raan_deg": 261.0914,
      "arg_perigee_deg": 263.4694,
      "mean_anomaly_deg": 96.5999,
      "mean_motion_rev_day": 15.27554975
    },
    {
      "epoch": "2026-04-07T11:19:23.590848Z",
      "apogee_km": 483.90016704861137,
      "perigee_km": 482.1228551382983,
      "latitude_deg": -1.660062285894803e-05,
      "longitude_deg": -115.58162842406368,
      "height_km": 482.93340531207025,
      "semi_major_axis_km": 6861.1485110934545,
      "eccentricity": 0.00012952,
      "inclination_deg": 43.0027,
      "raan_deg": 250.0149,
      "arg_perigee_deg": 260.6083,
      "mean_anomaly_deg": 99.4622,
      "mean_motion_rev_day": 15.27592552
    },
    {
      "epoch": "2026-04-08T10:51:44.328096Z",
      "apogee_km": 484.5669595522322,
      "perigee_km": 481.6808387676092,
      "latitude_deg": -5.287104952900592e-06,
      "longitude_deg": -115.17544073346863,
      "height_km": 483.1769518540119,
      "semi_major_axis_km": 6861.26089915992,
      "eccentricity": 0.00021032,
      "inclination_deg": 43.0003,
      "raan_deg": 244.4742,
      "arg_perigee_deg": 258.9804,
      "mean_anomaly_deg": 101.0811,
      "mean_motion_rev_day": 15.27555019
    }
  ]
}